[{"OBJECT_NAME":"STARLINK-32786","OBJECT_ID":"2025-004T","EPOCH":"2026-03-09T10:18:34.313184","MEAN_MOTION":15.27605327,"ECCENTRICITY":0.00016438,"INCLINATION":43,"RA_OF_ASC_NODE":220.9248,"ARG_OF_PERICENTER":257.5437,"MEAN_ANOMALY":102.523,"EPHEMERIS_TYPE":0,"CLASSIFICATION_TYPE":"U","NORAD_CAT_ID":62528,"ELEMENT_SET_NO":999,"REV_AT_EPOCH":6547,"BSTAR":0.0017049234,"MEAN_MOTION_DOT":0.0004699,"MEAN_MOTION_DDOT":0},{"OBJECT_NAME":"OBJECT G","OBJECT_ID":"2025-155G","EPOCH":"2026-03-09T22:09:56.639808","MEAN_MOTION":15.27590702,"ECCENTRICITY":0.00081871,"INCLINATION":97.4488,"RA_OF_ASC_NODE":37.3259,"ARG_OF_PERICENTER":154.1528,"MEAN_ANOMALY":206.0122,"EPHEMERIS_TYPE":0,"CLASSIFICATION_TYPE":"U","NORAD_CAT_ID":64882,"ELEMENT_SET_NO":999,"REV_AT_EPOCH":6559,"BSTAR":0.0004792617,"MEAN_MOTION_DOT":0.00012876,"MEAN_MOTION_DDOT":0}]
